[{"OBJECT_NAME":"MONITOR-3 (RS58S)","OBJECT_ID":"2023-091Q","EPOCH":"2026-03-09T23:24:02.583360","MEAN_MOTION":15.25747617,"ECCENTRICITY":0.0013676,"INCLINATION":97.5199,"RA_OF_ASC_NODE":131.7909,"ARG_OF_PERICENTER":91.0881,"MEAN_ANOMALY":269.1924,"EPHEMERIS_TYPE":0,"CLASSIFICATION_TYPE":"U","NORAD_CAT_ID":57180,"ELEMENT_SET_NO":999,"REV_AT_EPOCH":14915,"BSTAR":0.00054974842,"MEAN_MOTION_DOT":0.00014004,"MEAN_MOTION_DDOT":0},{"OBJECT_NAME":"YAOGAN-47","OBJECT_ID":"2025-289A","EPOCH":"2026-03-09T23:10:46.642368","MEAN_MOTION":15.23707396,"ECCENTRICITY":0.00012775,"INCLINATION":97.5108,"RA_OF_ASC_NODE":139.261,"ARG_OF_PERICENTER":63.9903,"MEAN_ANOMALY":296.1465,"EPHEMERIS_TYPE":0,"CLASSIFICATION_TYPE":"U","NORAD_CAT_ID":66988,"ELEMENT_SET_NO":999,"REV_AT_EPOCH":1382,"BSTAR":0.00032587728,"MEAN_MOTION_DOT":7.755e-5,"MEAN_MOTION_DDOT":0}]
